{
  "type": "FeatureCollection",
  "features": [
    {
      "type": "Feature",
      "properties": {
        "norad_id": 31307,
        "name": "GALAXY 17 (G-17)",
        "group": "intelsat",
        "lat": 2.4865266413107587,
        "lon": 167.86647063783707,
        "alt_km": 35779.93226145896,
        "timestamp": "2025-12-10T11:33:53.059016+00:00",
        "meta_object_name": "GALAXY 17 (G-17)",
        "meta_object_id": "2007-016B",
        "meta_epoch": "2025-12-10T02:10:38.678016",
        "meta_mean_motion": 1.0027256,
        "meta_eccentricity": 0.000602,
        "meta_inclination": 2.4935,
        "meta_ra_of_asc_node": 82.3119,
        "meta_arg_of_pericenter": 162.6841,
        "meta_mean_anomaly": 141.7455,
        "meta_ephemeris_type": 0,
        "meta_classification_type": "U",
        "meta_norad_cat_id": 31307,
        "meta_element_set_no": 999,
        "meta_rev_at_epoch": 6790,
        "meta_bstar": 0,
        "meta_mean_motion_dot": -2.03e-06,
        "meta_mean_motion_ddot": 0,
        "tle_line1": "1 31307U 07016B   25344.09072544 -.00000203  00000+0  00000+0 0  9991",
        "tle_line2": "2 31307   2.4935  82.3119 0006020 162.6841 141.7455  1.00272560 67901"
      },
      "geometry": {
        "type": "Point",
        "coordinates": [
          167.86647063783707,
          2.4865266413107587
        ]
      }
    },
    {
      "type": "Feature",
      "properties": {
        "norad_id": 31862,
        "name": "DIRECTV 10",
        "group": "intelsat",
        "lat": 0.00040258927305917105,
        "lon": 150.13337278933056,
        "alt_km": 35785.58659080804,
        "timestamp": "2025-12-10T11:33:53.059030+00:00",
        "meta_object_name": "DIRECTV 10",
        "meta_object_id": "2007-032A",
        "meta_epoch": "2025-12-10T04:31:38.802720",
        "meta_mean_motion": 1.00270185,
        "meta_eccentricity": 3.99e-05,
        "meta_inclination": 0.0096,
        "meta_ra_of_asc_node": 97.6001,
        "meta_arg_of_pericenter": 107.8966,
        "meta_mean_anomaly": 198.7969,
        "meta_ephemeris_type": 0,
        "meta_classification_type": "U",
        "meta_norad_cat_id": 31862,
        "meta_element_set_no": 999,
        "meta_rev_at_epoch": 4369,
        "meta_bstar": 0,
        "meta_mean_motion_dot": -1e-06,
        "meta_mean_motion_ddot": 0,
        "tle_line1": "1 31862U 07032A   25344.18864355 -.00000100  00000+0  00000+0 0  9990",
        "tle_line2": "2 31862   0.0096  97.6001 0000399 107.8966 198.7969  1.00270185 43693"
      },
      "geometry": {
        "type": "Point",
        "coordinates": [
          150.13337278933056,
          0.00040258927305917105
        ]
      }
    },
    {
      "type": "Feature",
      "properties": {
        "norad_id": 32253,
        "name": "INTELSAT 11 (IS-11)",
        "group": "intelsat",
        "lat": 2.277120065776976,
        "lon": 128.41315707308803,
        "alt_km": 36150.277464213876,
        "timestamp": "2025-12-10T11:33:53.059043+00:00",
        "meta_object_name": "INTELSAT 11 (IS-11)",
        "meta_object_id": "2007-044B",
        "meta_epoch": "2025-12-10T03:34:38.548128",
        "meta_mean_motion": 0.99047784,
        "meta_eccentricity": 0.0009046,
        "meta_inclination": 3.0737,
        "meta_ra_of_asc_node": 81.0031,
        "meta_arg_of_pericenter": 164.9188,
        "meta_mean_anomaly": 123.9529,
        "meta_ephemeris_type": 0,
        "meta_classification_type": "U",
        "meta_norad_cat_id": 32253,
        "meta_element_set_no": 999,
        "meta_rev_at_epoch": 6657,
        "meta_bstar": 0,
        "meta_mean_motion_dot": 7.7e-07,
        "meta_mean_motion_ddot": 0,
        "tle_line1": "1 32253U 07044B   25344.14905727  .00000077  00000+0  00000+0 0  9995",
        "tle_line2": "2 32253   3.0737  81.0031 0009046 164.9188 123.9529  0.99047784 66579"
      },
      "geometry": {
        "type": "Point",
        "coordinates": [
          128.41315707308803,
          2.277120065776976
        ]
      }
    },
    {
      "type": "Feature",
      "properties": {
        "norad_id": 32388,
        "name": "HORIZONS-2",
        "group": "intelsat",
        "lat": 2.0993132282394993,
        "lon": 179.08814352902678,
        "alt_km": 35786.80030318542,
        "timestamp": "2025-12-10T11:33:53.059055+00:00",
        "meta_object_name": "HORIZONS-2",
        "meta_object_id": "2007-063B",
        "meta_epoch": "2025-12-10T04:15:38.659392",
        "meta_mean_motion": 1.00270369,
        "meta_eccentricity": 0.0004997,
        "meta_inclination": 2.1151,
        "meta_ra_of_asc_node": 82.986,
        "meta_arg_of_pericenter": 187.7366,
        "meta_mean_anomaly": 158.5607,
        "meta_ephemeris_type": 0,
        "meta_classification_type": "U",
        "meta_norad_cat_id": 32388,
        "meta_element_set_no": 999,
        "meta_rev_at_epoch": 6591,
        "meta_bstar": 0,
        "meta_mean_motion_dot": -2.5e-06,
        "meta_mean_motion_ddot": 0,
        "tle_line1": "1 32388U 07063B   25344.17753078 -.00000250  00000+0  00000+0 0  9992",
        "tle_line2": "2 32388   2.1151  82.9860 0004997 187.7366 158.5607  1.00270369 65917"
      },
      "geometry": {
        "type": "Point",
        "coordinates": [
          179.08814352902678,
          2.0993132282394993
        ]
      }
    },
    {
      "type": "Feature",
      "properties": {
        "norad_id": 32729,
        "name": "DIRECTV 11",
        "group": "intelsat",
        "lat": -0.005838540137682869,
        "lon": 153.72858476386943,
        "alt_km": 35784.88753556536,
        "timestamp": "2025-12-10T11:33:53.059067+00:00",
        "meta_object_name": "DIRECTV 11",
        "meta_object_id": "2008-013A",
        "meta_epoch": "2025-12-09T10:14:01.462848",
        "meta_mean_motion": 1.0027202,
        "meta_eccentricity": 4.14e-05,
        "meta_inclination": 0.0295,
        "meta_ra_of_asc_node": 191.9729,
        "meta_arg_of_pericenter": 10.0555,
        "meta_mean_anomaly": 290.7006,
        "meta_ephemeris_type": 0,
        "meta_classification_type": "U",
        "meta_norad_cat_id": 32729,
        "meta_element_set_no": 999,
        "meta_rev_at_epoch": 4369,
        "meta_bstar": 0,
        "meta_mean_motion_dot": -1.23e-06,
        "meta_mean_motion_ddot": 0,
        "tle_line1": "1 32729U 08013A   25343.42640582 -.00000123  00000+0  00000+0 0  9998",
        "tle_line2": "2 32729   0.0295 191.9729 0000414  10.0555 290.7006  1.00272020 43694"
      },
      "geometry": {
        "type": "Point",
        "coordinates": [
          153.72858476386943,
          -0.005838540137682869
        ]
      }
    },
    {
      "type": "Feature",
      "properties": {
        "norad_id": 32951,
        "name": "GALAXY 18 (G-18)",
        "group": "intelsat",
        "lat": 0.004586526021126858,
        "lon": 129.89361218149142,
        "alt_km": 35794.79709908816,
        "timestamp": "2025-12-10T11:33:53.059079+00:00",
        "meta_object_name": "GALAXY 18 (G-18)",
        "meta_object_id": "2008-024A",
        "meta_epoch": "2025-12-10T04:39:38.509344",
        "meta_mean_motion": 1.00272828,
        "meta_eccentricity": 0.000314,
        "meta_inclination": 0.0149,
        "meta_ra_of_asc_node": 304.7103,
        "meta_arg_of_pericenter": 317.9663,
        "meta_mean_anomaly": 123.4015,
        "meta_ephemeris_type": 0,
        "meta_classification_type": "U",
        "meta_norad_cat_id": 32951,
        "meta_element_set_no": 999,
        "meta_rev_at_epoch": 4395,
        "meta_bstar": 0,
        "meta_mean_motion_dot": 2.8e-07,
        "meta_mean_motion_ddot": 0,
        "tle_line1": "1 32951U 08024A   25344.19419571  .00000028  00000+0  00000+0 0  9997",
        "tle_line2": "2 32951   0.0149 304.7103 0003140 317.9663 123.4015  1.00272828 43954"
      },
      "geometry": {
        "type": "Point",
        "coordinates": [
          129.89361218149142,
          0.004586526021126858
        ]
      }
    },
    {
      "type": "Feature",
      "properties": {
        "norad_id": 33153,
        "name": "INTELSAT 25 (IS-25)",
        "group": "intelsat",
        "lat": 1.4499602765257846,
        "lon": -138.59766006180251,
        "alt_km": 35770.6144350071,
        "timestamp": "2025-12-10T11:33:53.059091+00:00",
        "meta_object_name": "INTELSAT 25 (IS-25)",
        "meta_object_id": "2008-034A",
        "meta_epoch": "2025-12-09T20:16:17.404896",
        "meta_mean_motion": 1.00270258,
        "meta_eccentricity": 0.0005379,
        "meta_inclination": 2.2204,
        "meta_ra_of_asc_node": 82.6784,
        "meta_arg_of_pericenter": 184.9843,
        "meta_mean_anomaly": 83.7399,
        "meta_ephemeris_type": 0,
        "meta_classification_type": "U",
        "meta_norad_cat_id": 33153,
        "meta_element_set_no": 999,
        "meta_rev_at_epoch": 6379,
        "meta_bstar": 0,
        "meta_mean_motion_dot": -2.21e-06,
        "meta_mean_motion_ddot": 0,
        "tle_line1": "1 33153U 08034A   25343.84464589 -.00000221  00000+0  00000+0 0  9999",
        "tle_line2": "2 33153   2.2204  82.6784 0005379 184.9843  83.7399  1.00270258 63792"
      },
      "geometry": {
        "type": "Point",
        "coordinates": [
          -138.59766006180251,
          1.4499602765257846
        ]
      }
    }
  ]
}